{
  "norad_id": 63130,
  "name": "COSMOS 2584 [GLONASS-K2]",
  "history": [
    {
      "epoch": "2026-03-27T23:00:36.984096Z",
      "apogee_km": 19148.730585831123,
      "perigee_km": 19110.814608689372,
      "latitude_deg": 1.873041460836996e-05,
      "longitude_deg": -94.99031721766694,
      "height_km": 19140.143597273855,
      "semi_major_axis_km": 25507.909597260248,
      "eccentricity": 0.00074322,
      "inclination_deg": 65.039,
      "raan_deg": 75.5619,
      "arg_perigee_deg": 238.763,
      "mean_anomaly_deg": 121.1744,
      "mean_motion_rev_day": 2.13103439
    }
  ]
}